COSMOS 2425 (716)       
1 29670U 06062A   18033.66263679 -.00000013  00000-0  10000-3 0  9997
2 29670  65.3462 297.0836 0022704 345.5885 202.7007  2.13104978 86445
COSMOS 2426 (717)       
1 29671U 06062B   18033.64450870 -.00000013  00000-0  10000-3 0  9997
2 29671  65.3634 297.1793 0016135 164.9040 226.1829  2.13103119 86456
COSMOS 2433 (720)       
1 32275U 07052A   18033.88525146 -.00000027  00000-0  10000-3 0  9991
2 32275  65.6240  57.8698 0004902 268.7353 282.0779  2.13104837 79961
COSMOS 2432 (719)       
1 32276U 07052B   18033.89155791 -.00000027  00000-0  10000-3 0  9998
2 32276  65.6353  57.9467 0012508 325.6438 182.2710  2.13104013 79962
COSMOS 2434 (721)       
1 32393U 07065A   18034.14806726 -.00000017  00000-0  00000+0 0  9996
2 32393  64.9611 296.1070 0003353  91.0757 189.8522  2.13102938 78679
COSMOS 2436 (723)       
1 32395U 07065C   18034.07006813 -.00000017  00000-0  10000-3 0  9994
2 32395  64.9704 296.1603 0016462 358.7811 272.1408  2.13104284 78603
COSMOS 2456 (730)       
1 36111U 09070A   18033.86621260  .00000030  00000-0  00000+0 0  9996
2 36111  64.1842 175.6917 0003255 343.5179 253.0728  2.13102859 63335
COSMOS 2457 (733)       
1 36112U 09070B   18033.89800633  .00000030  00000-0  00000+0 0  9993
2 36112  64.1652 175.6041 0006877 150.4046 238.1019  2.13101589 63341
COSMOS 2458 (734)       
1 36113U 09070C   18034.31242711  .00000033  00000-0  10000-3 0  9997
2 36113  64.1716 175.5996 0002870  55.9739 338.6709  2.13102078 63355
COSMOS 2459 (731)       
1 36400U 10007A   18034.03012402 -.00000028  00000-0  10000-3 0  9994
2 36400  65.5339  56.9432 0027683 347.1831 174.8106  2.13102250 61693
COSMOS 2461 (735)       
1 36401U 10007B   18033.50374671 -.00000025  00000-0  10000-3 0  9992
2 36401  65.5248  56.9390 0004755  52.4299 336.3379  2.13102175 61687
COSMOS 2460 (732)       
1 36402U 10007C   18033.41322632 -.00000024  00000-0  10000-3 0  9992
2 36402  65.5155  56.9091 0002228 279.4406  80.7894  2.13101762 61680
COSMOS 2464 (736)       
1 37139U 10041C   18033.87105111 -.00000015  00000-0  00000+0 0  9994
2 37139  64.5646 295.9881 0024867  10.7899 285.3903  2.13102780 57757
COSMOS 2471 (701K)      
1 37372U 11009A   18034.31817167 -.00000030  00000-0  00000+0 0  9996
2 37372  65.5129  56.8266 0009577 240.2212 235.3472  2.13107782 53977
COSMOS 2474 (742)       
1 37829U 11055A   18033.67369002  .00000029  00000-0  00000-0 0  9990
2 37829  64.5083 176.3584 0006560 240.7385  66.9031  2.13101896 49321
COSMOS 2476 (744)       
1 37867U 11064A   18033.73803751  .00000030  00000-0  00000-0 0  9995
2 37867  64.4877 176.4217 0016117 238.5066 164.4985  2.13101963 48682
COSMOS 2477 (745)       
1 37868U 11064B   18034.47986412  .00000035  00000-0  00000+0 0  9998
2 37868  64.4964 176.4445 0013983 239.6981 191.4112  2.13101743 48654
COSMOS 2475 (743)       
1 37869U 11064C   18033.47554686  .00000028  00000-0  00000-0 0  9995
2 37869  64.5034 176.4710 0018222 269.0015  68.2476  2.13101941 48637
COSMOS 2485 (747)       
1 39155U 13019A   18033.69196132  .00000029  00000-0  00000-0 0  9990
2 39155  64.6570 176.5034 0016688 233.0823 179.5239  2.13101947 37159
COSMOS 2492 (754)       
1 39620U 14012A   18033.99960872 -.00000029  00000-0  10000-3 0  9999
2 39620  65.4058  56.7937 0016011 323.3733 359.8169  2.13103515 30106
COSMOS 2500 (755)       
1 40001U 14032A   18034.01673948 -.00000029  00000-0  00000+0 0  9990
2 40001  65.3471  56.7744 0007126 225.2071 333.6660  2.13102834 28327
COSMOS 2501 (702K)      
1 40315U 14075A   18034.25254411 -.00000021  00000-0  00000+0 0  9993
2 40315  64.2908 297.2362 0014605 210.5896 332.3633  2.13098494 24731
COSMOS 2514 (751)       
1 41330U 16008A   18033.71675898 -.00000027  00000-0  00000-0 0  9992
2 41330  65.1485  56.8704 0010681 227.3777 281.9459  2.13103386 15486
COSMOS 2516 (753)       
1 41554U 16032A   18033.90462779 -.00000017  00000-0  00000+0 0  9998
2 41554  64.5100 297.0781 0011085 225.8280 319.1792  2.13101657 13094
COSMOS 2522 (752)       
1 42939U 17055A   18033.67178262 -.00000014  00000-0  00000-0 0  9995
2 42939  64.7420 297.0108 0007319 259.6998 333.0804  2.13102062  2849
